NORAD_CAT_ID,OBJECT_NAME,OBJECT_TYPE,EPOCH,MEAN_MOTION,ECCENTRICITY,INCLINATION,RA_OF_ASC_NODE,ARG_OF_PERICENTER,MEAN_ANOMALY,BSTAR,MEAN_MOTION_DOT,MEAN_MOTION_DDOT,TLE_LINE0,TLE_LINE1,TLE_LINE2,SEMIMAJOR_AXIS,PERIOD,APOGEE,PERIGEE,DECAYED
49443.0,STARLINK-3136,PAYLOAD,2024-06-03 21:05:17,15.08837957,0.0001197,53.2177,219.3052,96.8153,263.2975,8.9722e-05,1.14e-05,0.0,0 STARLINK-3136,1 49443U 21104AM  24155.87867735  .00001140  00000-0  89722-4 0  9998,2 49443  53.2177 219.3052 0001197  96.8153 263.2975 15.08837957141725,6917.887,95.438,540.58,538.924,0.0
49443.0,STARLINK-3136,PAYLOAD,2024-06-04 11:23:45,15.0884968,0.0001104,53.2157,216.6249,80.1568,279.9549,0.00012529,1.707e-05,0.0,0 STARLINK-3136,1 49443U 21104AM  24156.47483005  .00001707  00000-0  12529-3 0  9998,2 49443  53.2157 216.6249 0001104  80.1568 279.9549 15.08849680142880,6917.851,95.437,540.48,538.952,0.0
49443.0,STARLINK-3136,PAYLOAD,2024-06-04 20:56:03,15.08846789,9.72e-05,53.2143,214.8388,78.4416,281.6685,0.00011321,1.515e-05,0.0,0 STARLINK-3136,1 49443U 21104AM  24156.87226840  .00001515  00000-0  11321-3 0  9990,2 49443  53.2143 214.8388 0000972  78.4416 281.6685 15.08846789141879,6917.86,95.437,540.397,539.052,0.0
49443.0,STARLINK-3136,PAYLOAD,2024-06-05 03:17:36,15.08843004,8.15e-05,53.2137,213.6489,65.5204,294.5873,0.00024218,3.569e-05,0.0,0 STARLINK-3136,1 49443U 21104AM  24157.13722952  .00003569  00000-0  24218-3 0  9995,2 49443  53.2137 213.6489 0000815  65.5204 294.5873 15.08843004142981,6917.871,95.437,540.3,539.172,0.0
49443.0,STARLINK-3136,PAYLOAD,2024-06-05 11:14:32,15.08844948,0.0001097,53.2159,212.1652,80.8847,279.2269,0.00010485,1.381e-05,0.0,0 STARLINK-3136,1 49443U 21104AM  24157.46843065  .00001381  00000-0  10485-3 0  9991,2 49443  53.2159 212.1652 0001097  80.8847 279.2269 15.08844948141961,6917.865,95.437,540.489,538.971,0.0
49443.0,STARLINK-3136,PAYLOAD,2024-06-05 20:46:51,15.08842516,0.0001062,53.2158,210.3811,84.452,275.6594,7.187e-05,8.56e-06,0.0,0 STARLINK-3136,1 49443U 21104AM  24157.86587197  .00000856  00000-0  71870-4 0  9998,2 49443  53.2158 210.3811 0001062  84.4520 275.6594 15.08842516142025,6917.873,95.437,540.472,539.003,0.0
49443.0,STARLINK-3136,PAYLOAD,2024-06-06 03:08:23,15.08839721,8.26e-05,53.2158,209.1891,86.9574,273.1513,8.4775e-05,1.062e-05,0.0,0 STARLINK-3136,1 49443U 21104AM  24158.13083200  .00001062  00000-0  84775-4 0  9993,2 49443  53.2158 209.1891 0000826  86.9574 273.1513 15.08839721143133,6917.881,95.438,540.318,539.175,0.0
49443.0,STARLINK-3136,PAYLOAD,2024-06-06 11:05:19,15.08844007,0.0001044,53.2156,207.7037,101.3779,258.733,-3.1303e-05,-7.86e-06,0.0,0 STARLINK-3136,1 49443U 21104AM  24158.46203343 -.00000786  00000-0 -31303-4 0  9994,2 49443  53.2156 207.7037 0001044 101.3779 258.7330 15.08844007142115,6917.868,95.437,540.455,539.011,0.0
49443.0,STARLINK-3136,PAYLOAD,2024-06-07 09:20:43,15.0884329,0.0001149,53.2157,203.5411,91.2616,268.8508,7.1575e-05,8.52e-06,0.0,0 STARLINK-3136,1 49443U 21104AM  24159.38939069  .00000852  00000-0  71575-4 0  9994,2 49443  53.2157 203.5411 0001149  91.2616 268.8508 15.08843290143325,6917.87,95.437,540.53,538.94,0.0
49443.0,STARLINK-3136,PAYLOAD,2024-06-07 20:28:25,15.08843893,0.000114,53.216,201.46,97.5862,262.526,0.00013475,1.858e-05,0.0,0 STARLINK-3136,1 49443U 21104AM  24159.85306793  .00001858  00000-0  13475-3 0  9999,2 49443  53.2160 201.4600 0001140  97.5862 262.5260 15.08843893142323,6917.868,95.437,540.522,538.945,0.0
49443.0,STARLINK-3136,PAYLOAD,2024-06-08 02:49:58,15.0882985,0.0001232,53.2167,200.2713,96.5241,263.5892,0.00027987,4.168e-05,0.0,0 STARLINK-3136,1 49443U 21104AM  24160.11803319  .00004168  00000-0  27987-3 0  9996,2 49443  53.2167 200.2713 0001232  96.5241 263.5892 15.08829850143436,6917.911,95.438,540.629,538.924,0.0
49443.0,STARLINK-3136,PAYLOAD,2024-06-08 09:11:30,15.08835835,0.0001251,53.217,199.0814,99.6526,260.4608,0.00028628,4.271e-05,0.0,0 STARLINK-3136,1 49443U 21104AM  24160.38299100  .00004271  00000-0  28628-3 0  9990,2 49443  53.2170 199.0814 0001251  99.6526 260.4608 15.08835835142405,6917.893,95.438,540.624,538.893,0.0
49443.0,STARLINK-3136,PAYLOAD,2024-06-09 07:26:55,15.08832883,0.0001283,53.2166,194.9174,99.0029,261.1109,-3.7475e-05,-8.84e-06,0.0,0 STARLINK-3136,1 49443U 21104AM  24161.31036213 -.00000884  00000-0 -37475-4 0  9997,2 49443  53.2166 194.9174 0001283  99.0029 261.1109 15.08832883143618,6917.902,95.438,540.655,538.88,0.0
49443.0,STARLINK-3136,PAYLOAD,2024-06-10 12:03:51,15.08840346,0.0001168,53.2162,189.5661,92.2257,267.8869,6.2898e-05,7.13e-06,0.0,0 STARLINK-3136,1 49443U 21104AM  24162.50267951  .00000713  00000-0  62898-4 0  9990,2 49443  53.2162 189.5661 0001168  92.2257 267.8869 15.08840346143793,6917.879,95.438,540.552,538.936,0.0
49443.0,STARLINK-3136,PAYLOAD,2024-06-10 18:25:24,15.08837007,0.000121,53.2162,188.3767,90.4003,269.7127,0.00013236,1.819e-05,0.0,0 STARLINK-3136,1 49443U 21104AM  24162.76764114  .00001819  00000-0  13236-3 0  9990,2 49443  53.2162 188.3767 0001210  90.4003 269.7127 15.08837007142768,6917.89,95.438,540.592,538.917,0.0
49443.0,STARLINK-3136,PAYLOAD,2024-06-11 08:43:52,15.08842957,0.0001166,53.216,185.6995,79.5432,280.5691,0.00023997,3.534e-05,0.0,0 STARLINK-3136,1 49443U 21104AM  24163.36379843  .00003534  00000-0  23997-3 0  9999,2 49443  53.2160 185.6995 0001166  79.5432 280.5691 15.08842957142850,6917.871,95.437,540.543,538.93,0.0
49443.0,STARLINK-3136,PAYLOAD,2024-06-12 05:23:53,15.08835297,0.0001197,53.2148,181.8343,81.7838,278.3289,-3.8676e-05,-9.03e-06,0.0,0 STARLINK-3136,1 49443U 21104AM  24164.22492404 -.00000903  00000-0 -38676-4 0  9994,2 49443  53.2148 181.8343 0001197  81.7838 278.3289 15.08835297144051,6917.895,95.438,540.588,538.932,0.0
49443.0,STARLINK-3136,PAYLOAD,2024-06-12 18:06:58,15.08839215,0.0001173,53.2155,179.4557,84.885,275.2276,4.2527e-05,3.89e-06,0.0,0 STARLINK-3136,1 49443U 21104AM  24164.75484549  .00000389  00000-0  42527-4 0  9999,2 49443  53.2155 179.4557 0001173  84.8850 275.2276 15.08839215143067,6917.883,95.438,540.559,538.936,0.0
49443.0,STARLINK-3136,PAYLOAD,2024-06-13 08:25:26,15.08843949,0.0001195,53.2158,176.7803,87.2912,272.8217,3.3324e-05,2.43e-06,0.0,0 STARLINK-3136,1 49443U 21104AM  24165.35100189  .00000243  00000-0  33324-4 0  9995,2 49443  53.2158 176.7803 0001195  87.2912 272.8217 15.08843949144220,6917.868,95.437,540.56,538.907,0.0
49443.0,STARLINK-3136,PAYLOAD,2024-06-14 08:16:13,15.08840137,0.0001125,53.2158,172.3177,85.7366,274.3755,8.9235e-05,1.133e-05,0.0,0 STARLINK-3136,1 49443U 21104AM  24166.34460295  .00001133  00000-0  89235-4 0  9993,2 49443  53.2158 172.3177 0001125  85.7366 274.3755 15.08840137143303,6917.88,95.438,540.523,538.967,0.0
49443.0,STARLINK-3136,PAYLOAD,2024-06-14 17:48:32,15.08841973,0.0001129,53.216,170.5336,85.3274,274.7847,8.9487e-05,1.137e-05,0.0,0 STARLINK-3136,1 49443U 21104AM  24166.74204179  .00001137  00000-0  89487-4 0  9997,2 49443  53.2160 170.5336 0001129  85.3274 274.7847 15.08841973143362,6917.874,95.437,540.52,538.958,0.0
49443.0,STARLINK-3136,PAYLOAD,2024-06-15 06:31:37,15.08846273,0.0001138,53.216,168.1541,89.069,271.0433,9.5192e-05,1.228e-05,0.0,0 STARLINK-3136,1 49443U 21104AM  24167.27195774  .00001228  00000-0  95192-4 0  9997,2 49443  53.2160 168.1541 0001138  89.0690 271.0433 15.08846273143444,6917.861,95.437,540.513,538.939,0.0
49443.0,STARLINK-3136,PAYLOAD,2024-06-15 17:39:19,15.08843358,0.0001113,53.2159,166.0727,87.3642,272.7477,7.7006e-05,9.38e-06,0.0,0 STARLINK-3136,1 49443U 21104AM  24167.73563911  .00000938  00000-0  77006-4 0  9991,2 49443  53.2159 166.0727 0001113  87.3642 272.7477 15.08843358143511,6917.87,95.437,540.505,538.965,0.0
49443.0,STARLINK-3136,PAYLOAD,2024-06-16 06:22:24,15.08839123,0.0001191,53.2158,163.6939,88.9799,271.133,3.1886e-05,2.2e-06,0.0,0 STARLINK-3136,1 49443U 21104AM  24168.26556279  .00000220  00000-0  31886-4 0  9999,2 49443  53.2158 163.6939 0001191  88.9799 271.1330 15.08839123143598,6917.883,95.438,540.572,538.924,0.0
49443.0,STARLINK-3136,PAYLOAD,2024-06-17 15:45:30,15.08838044,0.0001285,53.2156,157.4493,89.5875,270.5264,3.9229e-06,-2.25e-06,0.0,0 STARLINK-3136,1 49443U 21104AM  24169.65660328 -.00000225  00000-0  39229-5 0  9990,2 49443  53.2156 157.4493 0001285  89.5875 270.5264 15.08838044143802,6917.886,95.438,540.64,538.862,0.0
49443.0,STARLINK-3136,PAYLOAD,2024-06-18 04:28:35,15.08835455,0.0001254,53.2155,155.07,88.5043,271.6093,3.9332e-05,3.38e-06,0.0,0 STARLINK-3136,1 49443U 21104AM  24170.18652470  .00000338  00000-0  39332-4 0  9997,2 49443  53.2155 155.0700 0001254  88.5043 271.6093 15.08835455144950,6917.894,95.438,540.627,538.892,0.0
49443.0,STARLINK-3136,PAYLOAD,2024-06-18 09:14:44,15.0883827,0.0001262,53.2157,154.1779,88.0601,272.0535,5.0064e-05,5.09e-06,0.0,0 STARLINK-3136,1 49443U 21104AM  24170.38524291  .00000509  00000-0  50064-4 0  9993,2 49443  53.2157 154.1779 0001262  88.0601 272.0535 15.08838270143911,6917.886,95.438,540.624,538.878,0.0
49443.0,STARLINK-3136,PAYLOAD,2024-06-18 15:36:17,15.08835988,0.0001249,53.2156,152.9883,86.8142,273.2993,3.5013e-05,2.69e-06,0.0,0 STARLINK-3136,1 49443U 21104AM  24170.65020510  .00000269  00000-0  35013-4 0  9998,2 49443  53.2156 152.9883 0001249  86.8142 273.2993 15.08835988143951,6917.893,95.438,540.622,538.894,0.0
49443.0,STARLINK-3136,PAYLOAD,2024-06-19 05:54:46,15.08829274,0.0001324,53.2159,150.3126,88.998,271.1164,-2.8529e-05,-7.42e-06,0.0,0 STARLINK-3136,1 49443U 21104AM  24171.24637430 -.00000742  00000-0 -28529-4 0  9991,2 49443  53.2159 150.3126 0001324  88.9980 271.1164 15.08829274145111,6917.913,95.438,540.694,538.862,0.0
49443.0,STARLINK-3136,PAYLOAD,2024-06-19 21:48:38,15.0883255,0.0001403,53.2167,147.3391,88.7528,271.3625,2.1405e-05,5.3e-07,0.0,0 STARLINK-3136,1 49443U 21104AM  24171.90877368  .00000053  00000-0  21405-4 0  9999,2 49443  53.2167 147.3391 0001403  88.7528 271.3625 15.08832550144141,6917.903,95.438,540.739,538.798,0.0
